OBJECT_NAME,OBJECT_ID,EPOCH,MEAN_MOTION,ECCENTRICITY,INCLINATION,RA_OF_ASC_NODE,ARG_OF_PERICENTER,MEAN_ANOMALY,EPHEMERIS_TYPE,CLASSIFICATION_TYPE,NORAD_CAT_ID,ELEMENT_SET_NO,REV_AT_EPOCH,BSTAR,MEAN_MOTION_DOT,MEAN_MOTION_DDOT
GLOBALSTAR M069,2007-020C,2026-07-20T07:14:28.989888,12.23472403,.00015221,52.0014,158.3977,221.2256,303.6484,0,U,31573,999,88285,.36131564E-3,-.53E-6,0
GLOBALSTAR M072,2007-020D,2026-07-20T10:11:22.062624,11.91658742,.00016493,51.9951,11.7584,45.0920,331.1015,0,U,31574,999,87894,-.75327857E-4,-.9E-6,0
GLOBALSTAR M066,2007-048C,2026-07-20T14:46:57.998784,12.30390155,.000552,51.9612,321.9495,112.7664,260.2400,0,U,32265,999,86434,.51906784E-3,-.33E-6,0
GLOBALSTAR M079,2010-054A,2026-07-20T04:19:50.214720,12.62266428,.0001124,52.0057,8.2335,85.7939,86.4029,0,U,37188,999,72671,-.12521544E-4,-.106E-5,0
GLOBALSTAR M074,2010-054B,2026-07-20T11:50:06.760320,12.62262045,.00008501,52.0035,6.5419,101.2624,292.4399,0,U,37189,999,72736,-.2310978E-4,-.108E-5,0
GLOBALSTAR M076,2010-054C,2026-07-20T10:29:02.738400,12.62262552,.00010895,52.0050,6.9195,99.1566,278.5143,0,U,37190,999,72707,.60503854E-4,-.93E-6,0
GLOBALSTAR M077,2010-054D,2026-07-20T00:09:29.668896,11.67547200,.00021814,51.9961,95.9950,233.9275,225.5768,0,U,37191,999,72497,-.3716211E-3,-.98E-6,0
GLOBALSTAR M075,2010-054E,2026-07-20T00:05:13.892928,12.62267915,.00007869,51.9955,50.2739,71.7784,77.0132,0,U,37192,999,72608,.7665834E-5,-.102E-5,0
GLOBALSTAR M073,2010-054F,2026-07-20T14:34:57.745920,12.62266940,.00009909,52.0082,322.5622,105.3928,267.6127,0,U,37193,999,72815,.33741644E-4,-.98E-6,0
GLOBALSTAR M083,2011-033A,2026-07-20T11:05:41.625312,12.62264350,.00006968,51.9856,271.1887,111.3845,262.1674,0,U,37739,999,69715,.55294409E-4,-.94E-6,0
GLOBALSTAR M088,2011-033B,2026-07-20T07:19:48.314784,12.62269494,.00001317,52.0191,178.1717,38.5229,100.6158,0,U,37740,999,69267,.30622093E-4,-.98E-6,0
GLOBALSTAR M091,2011-033C,2026-07-20T13:30:47.935584,12.62264310,.00005535,51.9989,140.3041,32.8709,138.0964,0,U,37741,999,69349,.99155755E-4,-.86E-6,0
GLOBALSTAR M085,2011-033D,2026-07-20T11:17:52.712736,12.62264496,.00008786,52.0129,91.9068,50.8876,120.4269,0,U,37742,999,69399,.77623798E-4,-.9E-6,0
GLOBALSTAR M081,2011-033E,2026-07-20T02:16:31.563264,12.62265367,.00007523,51.9960,95.4494,61.8591,80.1790,0,U,37743,999,69409,.73001295E-4,-.91E-6,0
GLOBALSTAR M089,2011-033F,2026-07-20T01:26:41.215200,12.62267629,.00007248,51.9941,49.7070,95.1052,70.7259,0,U,37744,999,69493,-.5693795E-5,-.105E-5,0
GLOBALSTAR M084,2011-080A,2026-07-20T08:53:55.880160,12.62263689,.00007187,52.0011,276.2622,139.1732,298.4337,0,U,38040,999,67295,.64381379E-4,-.92E-6,0
GLOBALSTAR M080,2011-080B,2026-07-20T06:04:48.434304,12.62257606,.00003005,52.0060,278.3498,71.9505,321.3937,0,U,38041,999,67306,.5661006E-4,-.94E-6,0
GLOBALSTAR M082,2011-080C,2026-07-20T08:14:25.638720,12.62264361,.00001918,52.0052,233.5791,59.3982,313.2431,0,U,38042,999,67378,.32460742E-4,-.98E-6,0
GLOBALSTAR M092,2011-080D,2026-07-20T07:39:48.877344,12.62267930,.00007384,52.0105,324.0500,111.9825,270.8003,0,U,38043,999,67223,.11414509E-3,-.83E-6,0
GLOBALSTAR M090,2011-080E,2026-07-20T11:34:53.205600,12.62269621,.00003905,52.0095,227.1215,82.2437,82.1616,0,U,38044,999,67391,.30888624E-4,-.98E-6,0
GLOBALSTAR M086,2011-080F,2026-07-20T12:05:10.422240,12.62287860,.00014199,51.9871,226.9319,119.1904,44.9170,0,U,38045,999,67386,-.7123301E-5,-.105E-5,0
GLOBALSTAR M097,2013-005A,2026-07-20T02:28:57.232416,12.62271277,.00005373,52.0033,143.1347,45.2997,314.7913,0,U,39072,999,62106,.19912644E-4,-.1E-5,0
GLOBALSTAR M093,2013-005B,2026-07-20T13:14:35.478528,12.62266399,.00007733,52.0098,135.1300,51.5380,308.5556,0,U,39073,999,62107,.92330894E-4,-.87E-6,0
GLOBALSTAR M094,2013-005C,2026-07-19T23:56:12.803424,12.62264286,.00010404,51.9969,50.9021,70.4392,289.6587,0,U,39074,999,62261,.32314136E-4,-.98E-6,0
GLOBALSTAR M096,2013-005D,2026-07-20T04:03:44.285184,12.62265831,.00008297,52.0076,99.2062,51.6907,308.4034,0,U,39075,999,62155,.94129918E-4,-.87E-6,0
GLOBALSTAR M078,2013-005E,2026-07-20T07:13:06.997152,12.62260095,.0000956,51.9847,182.7702,352.7591,7.3261,0,U,39076,999,62019,-.5805001E-5,-.105E-5,0
GLOBALSTAR M095,2013-005F,2026-07-20T07:51:31.164192,12.62264080,.00005732,52.0054,180.3391,21.1660,338.9230,0,U,39077,999,62005,-.772819E-6,-.104E-5,0
GLOBALSTAR M087,2022-064A,2026-07-20T08:10:22.096128,12.62269449,.00008982,52.0016,321.5199,91.1053,268.9917,0,U,52888,999,19532,.9853977E-4,-.86E-6,0
